QZS-1R                  
1 49336U 21096A   24156.82083587 -.00000279  00000+0  00000+0 0  9999
2 49336  35.9206  90.7152 0755377 271.2910 321.9343  1.00263163  9558
